GOES 16                 
1 41866U 16071A   26186.55855331 -.00000077  00000+0  00000+0 0  9991
2 41866   0.3831  85.6725 0000512  53.9412 240.3346  1.00271784 35287
TIANLIAN 1-04           
1 41869U 16072A   26186.61164605  .00000044  00000+0  00000+0 0  9992
2 41869   0.9154  82.8030 0043984  90.1197 147.7080  1.00269188 35487
WGS F8 (USA 272)        
1 41879U 16075A   26185.89350360  .00000000  00000+0  00000+0 0  9992
2 41879   0.0488  62.9947 0000122 313.2074  18.2156  1.00269507 34991
FENGYUN 4A              
1 41882U 16077A   26186.66087916 -.00000344  00000+0  00000+0 0  9990
2 41882   2.3666  80.0843 0008007 157.8053  47.4517  1.00274232 35114
ECHOSTAR 19             
1 41893U 16079A   26186.20100655 -.00000125  00000+0  00000+0 0  9997
2 41893   0.0191  37.9272 0001471  70.1251 150.4199  1.00271536 34884
JCSAT-110A (JCSAT-15)   
1 41903U 16082A   26186.62172346 -.00000337  00000+0  00000+0 0  9990
2 41903   0.0183  31.5156 0000716 106.7860 119.2013  1.00271605 34943
STAR ONE D1             
1 41904U 16082B   26186.13232255  .00000000  00000+0  00000+0 0  9999
2 41904   0.0476  66.4758 0002138  54.2648 126.0659  1.00267472 34955
TJS-2                   
1 41911U 17001A   26186.51862106  .00000006  00000+0  00000+0 0  9991
2 41911   0.8777  85.1062 0000836  71.0332  20.6483  1.00273226 34904
SBIRS GEO-4 (USA 273)   
1 41937U 17004A   26186.58093183  .00000139  00000+0  00000+0 0  9997
2 41937   2.2758  43.7307 0002832  62.3932  47.8485  1.00285999 34785
HISPASAT 36W-1          
1 41942U 17006A   26186.02511736 -.00000232  00000+0  00000+0 0  9998
2 41942   0.0408 219.8977 0001107 246.6619 149.5073  1.00270151 34429
TELKOM 3S               
1 41944U 17007A   26186.52877924  .00000000  00000+0  00000+0 0  9992
2 41944   0.0151  27.8955 0002247  80.5264 123.4712  1.00268508 34329
INTELSAT 32E (IS-32E)   
1 41945U 17007B   26186.17121042  .00000000  00000+0  00000+0 0  9997
2 41945   0.0170  17.7536 0000840 346.9082 296.9814  1.00276571 34405
ECHOSTAR 23             
1 42070U 17014A   26186.55493170 -.00000043  00000+0  00000+0 0  9999
2 42070   0.0179  30.1728 0001797  71.9297 271.3255  1.00268318 34104
WGS F9 (USA 275)        
1 42075U 17016A   26186.07527284  .00000000  00000+0  00000+0 0  9999
2 42075   0.0192  16.9280 0000509 142.5068 138.7473  1.00268399 34073
SES-10                  
1 42432U 17017A   26186.15283343 -.00000260  00000+0  00000+0 0  9990
2 42432   0.0158  37.0217 0002954  74.0529 160.2115  1.00272316 33934
CHINASAT 16 (SJ-13)     
1 42662U 17018A   26186.02830425 -.00000339  00000+0  00000+0 0  9998
2 42662   0.0920  88.9793 0004348 133.5632 181.2015  1.00271417 33927
KOREASAT 7              
1 42691U 17023A   26186.52834590 -.00000348  00000+0  00000+0 0  9998
2 42691   0.0187 358.6665 0000589 125.5965 105.3329  1.00272572 33559
GSAT-9                  
1 42695U 17024A   26186.61182412 -.00000273  00000+0  00000+0 0  9999
2 42695   0.0642  92.0688 0002180  23.0389 126.0744  1.00271419 33486
INMARSAT 5-F4           
1 42698U 17025A   26186.16019039  .00000000  00000+0  00000+0 0  9994
2 42698   0.0225  39.1540 0000359 165.4229 192.7653  1.00269822 33456
SES-15                  
1 42709U 17026A   26186.40853690  .00000073  00000+0  00000+0 0  9994
2 42709   0.0235 326.5081 0001025 175.8298 158.9945  1.00273257  7619
QZS-2 (MICHIBIKI-2)     
1 42738U 17028A   26186.44055433 -.00000105  00000+0  00000+0 0  9998
2 42738  39.3999 242.8847 0758397 269.4808  71.9203  1.00279241  7802
VIASAT-2                
1 42740U 17029A   26186.23745807 -.00000252  00000+0  00000+0 0  9993
2 42740   0.0247 286.8365 0000289 182.6414 189.3741  1.00272406 33387
EUTELSAT 172B           
1 42741U 17029B   26185.89792362  .00000007  00000+0  00000+0 0  9990
2 42741   0.0293 124.9412 0000105 315.6737 337.5407  1.00271604 33911
GSAT-19                 
1 42747U 17031A   26186.15845706  .00000138  00000+0  00000+0 0  9995
2 42747   0.0160  63.0714 0006775  19.6797 305.3364  1.00271893 33324
ECHOSTAR 21             
1 42749U 17032A   26186.57876515  .00000079  00000+0  00000+0 0  9990
2 42749   1.7699 356.8405 0002351  97.8384  47.5083  1.00271063 33284
HELLAS-SAT 3            
1 42814U 17040A   26186.58439851  .00000166  00000+0  00000+0 0  9998
2 42814   0.0561  53.2443 0003803  12.3052 107.4151  1.00273252 32995
GSAT-17                 
1 42815U 17040B   26186.60820642 -.00000244  00000+0  00000+0 0  9992
2 42815   0.0476  89.0848 0001594 179.7564 327.2000  1.00270479 32979
INTELSAT 35E (IS-35E)   
1 42818U 17041A   26186.44382245 -.00000224  00000+0  00000+0 0  9998
2 42818   0.0190  38.6191 0001899  62.8398 307.2681  1.00272942 32993
