OBJECT_NAME,OBJECT_ID,EPOCH,MEAN_MOTION,ECCENTRICITY,INCLINATION,RA_OF_ASC_NODE,ARG_OF_PERICENTER,MEAN_ANOMALY,EPHEMERIS_TYPE,CLASSIFICATION_TYPE,NORAD_CAT_ID,ELEMENT_SET_NO,REV_AT_EPOCH,BSTAR,MEAN_MOTION_DOT,MEAN_MOTION_DDOT
GOES 16,2016-071A,2026-07-05T13:24:19.005120,1.00271784,.0000512,0.3831,85.6725,53.9412,240.3346,0,U,41866,999,3528,0,-.77E-6,0
TIANLIAN 1-04,2016-072A,2026-07-05T14:40:46.218720,1.00269188,.00439844,0.9154,82.8030,90.1197,147.7080,0,U,41869,999,3548,0,.44E-6,0
WGS F8 (USA 272),2016-075A,2026-07-04T21:26:38.711040,1.00269507,.0000122,0.0488,62.9947,313.2074,18.2156,0,U,41879,999,3499,0,0,0
FENGYUN 4A,2016-077A,2026-07-05T15:51:39.959424,1.00274232,.00080074,2.3666,80.0843,157.8053,47.4517,0,U,41882,999,3511,0,-.344E-5,0
ECHOSTAR 19,2016-079A,2026-07-05T04:49:26.965056,1.00271536,.0001471,0.0191,37.9272,70.1251,150.4199,0,U,41893,999,3488,0,-.125E-5,0
JCSAT-110A (JCSAT-15),2016-082A,2026-07-05T14:55:16.906944,1.00271605,.00007165,0.0183,31.5156,106.7860,119.2013,0,U,41903,999,3494,0,-.337E-5,0
STAR ONE D1,2016-082B,2026-07-05T03:10:32.668320,1.00267472,.0002138,0.0476,66.4758,54.2648,126.0659,0,U,41904,999,3495,0,0,0
TJS-2,2017-001A,2026-07-05T12:26:48.858720,1.00273226,.0000836,0.8777,85.1062,71.0332,20.6483,0,U,41911,999,3490,0,.6E-7,0
SBIRS GEO-4 (USA 273),2017-004A,2026-07-05T13:56:32.510112,1.00285999,.00028324,2.2758,43.7307,62.3932,47.8485,0,U,41937,999,3478,0,.139E-5,0
HISPASAT 36W-1,2017-006A,2026-07-05T00:36:10.139040,1.00270151,.0001107,0.0408,219.8977,246.6619,149.5073,0,U,41942,999,3442,0,-.232E-5,0
TELKOM 3S,2017-007A,2026-07-05T12:41:26.526336,1.00268508,.0002248,0.0151,27.8955,80.5264,123.4712,0,U,41944,999,3432,0,0,0
INTELSAT 32E (IS-32E),2017-007B,2026-07-05T04:06:32.580288,1.00276571,.0000841,0.0170,17.7536,346.9082,296.9814,0,U,41945,999,3440,0,0,0
ECHOSTAR 23,2017-014A,2026-07-05T13:19:06.098880,1.00268318,.00017978,0.0179,30.1728,71.9297,271.3255,0,U,42070,999,3410,0,-.43E-6,0
WGS F9 (USA 275),2017-016A,2026-07-05T01:48:23.573376,1.00268399,.000051,0.0192,16.9280,142.5068,138.7473,0,U,42075,999,3407,0,0,0
SES-10,2017-017A,2026-07-05T03:40:04.808352,1.00272316,.0002954,0.0158,37.0217,74.0529,160.2115,0,U,42432,999,3393,0,-.26E-5,0
CHINASAT 16 (SJ-13),2017-018A,2026-07-05T00:40:45.487200,1.00271417,.0004348,0.0920,88.9793,133.5632,181.2015,0,U,42662,999,3392,0,-.339E-5,0
KOREASAT 7,2017-023A,2026-07-05T12:40:49.084896,1.00272572,.000059,0.0187,358.6665,125.5965,105.3329,0,U,42691,999,3355,0,-.348E-5,0
GSAT-9,2017-024A,2026-07-05T14:41:01.603968,1.00271419,.00021804,0.0642,92.0688,23.0389,126.0744,0,U,42695,999,3348,0,-.273E-5,0
INMARSAT 5-F4,2017-025A,2026-07-05T03:50:40.448832,1.00269822,.000036,0.0225,39.1540,165.4229,192.7653,0,U,42698,999,3345,0,0,0
SES-15,2017-026A,2026-07-05T09:48:17.588160,1.00273257,.0001026,0.0235,326.5081,175.8298,158.9945,0,U,42709,999,761,0,.73E-6,0
QZS-2 (MICHIBIKI-2),2017-028A,2026-07-05T10:34:23.894112,1.00279241,.0758397,39.3999,242.8847,269.4808,71.9203,0,U,42738,999,780,0,-.105E-5,0
VIASAT-2,2017-029A,2026-07-05T05:41:56.377248,1.00272406,.0000289,0.0247,286.8365,182.6414,189.3741,0,U,42740,999,3338,0,-.252E-5,0
EUTELSAT 172B,2017-029B,2026-07-04T21:33:00.599904,1.00271604,.0000106,0.0293,124.9412,315.6737,337.5407,0,U,42741,999,3391,0,.7E-7,0
GSAT-19,2017-031A,2026-07-05T03:48:10.689120,1.00271893,.0006775,0.0160,63.0714,19.6797,305.3364,0,U,42747,999,3332,0,.138E-5,0
ECHOSTAR 21,2017-032A,2026-07-05T13:53:25.308960,1.00271063,.00023511,1.7699,356.8405,97.8384,47.5083,0,U,42749,999,3328,0,.79E-6,0
HELLAS-SAT 3,2017-040A,2026-07-05T14:01:32.031264,1.00273252,.00038031,0.0561,53.2443,12.3052,107.4151,0,U,42814,999,3299,0,.166E-5,0
GSAT-17,2017-040B,2026-07-05T14:35:49.034688,1.00270479,.00015944,0.0476,89.0848,179.7564,327.2000,0,U,42815,999,3297,0,-.244E-5,0
INTELSAT 35E (IS-35E),2017-041A,2026-07-05T10:39:06.258816,1.00272942,.0001899,0.0190,38.6191,62.8398,307.2681,0,U,42818,999,3299,0,-.224E-5,0
